IRIDIUM 159             
1 43578U 18061K   25345.18007405  .00000229  00000+0  74635-4 0  9998
2 43578  86.3969 135.3180 0001981  88.5103 271.6320 14.34215679386432
IRIDIUM 180             
1 43922U 19002A   25345.24933964  .00000243  00000+0  79790-4 0  9995
2 43922  86.3966  72.1644 0001998  93.6112 266.5313 14.34218324362057
IRIDIUM 176             
1 43923U 19002B   25345.29624518  .00001872  00000+0  29311-3 0  9995
2 43923  86.6090  72.1159 0002230  94.9986 265.1485 14.72239385371601
IRIDIUM 168             
1 43924U 19002C   25345.31276436  .00000532  00000+0  18282-3 0  9998
2 43924  86.3968  72.2099 0002019  96.9820 263.1605 14.34219469362040
IRIDIUM 173             
1 43925U 19002D   25345.30007828  .00000487  00000+0  16693-3 0  9998
2 43925  86.3965  72.1116 0001931 100.5111 259.6303 14.34219083362029
IRIDIUM 169             
1 43926U 19002E   25345.31254943  .00000658  00000+0  20863-3 0  9996
2 43926  86.4220 103.7574 0001808 127.5770 232.5593 14.38603422363218
IRIDIUM 172             
1 43927U 19002F   25345.29373711  .00000217  00000+0  70247-4 0  9992
2 43927  86.3965  72.1216 0001951  92.3232 267.8188 14.34217853362032
IRIDIUM 175             
1 43928U 19002G   25344.47589942  .00001050  00000+0  16249-3 0  9994
2 43928  86.1503  14.9924 0003164  95.6441 264.5137 14.72251158371479
